{
  "type": "FeatureCollection",
  "features": [
    {
      "type": "Feature",
      "properties": {
        "norad_id": 34350,
        "name": "IRIDIUM 33 DEB",
        "group": "iridium-33-debris",
        "lat": 70.39499060377257,
        "lon": 175.69110763262051,
        "alt_km": 723.956793209345,
        "timestamp": "2025-12-05T04:52:15.675631+00:00",
        "meta_object_name": "IRIDIUM 33 DEB",
        "meta_object_id": "1997-051ES",
        "meta_epoch": "2025-12-04T01:54:53.906976",
        "meta_mean_motion": 14.45357099,
        "meta_eccentricity": 0.00219337,
        "meta_inclination": 86.3281,
        "meta_ra_of_asc_node": 6.5649,
        "meta_arg_of_pericenter": 162.4763,
        "meta_mean_anomaly": 226.5026,
        "meta_ephemeris_type": 0,
        "meta_classification_type": "U",
        "meta_norad_cat_id": 34350,
        "meta_element_set_no": 999,
        "meta_rev_at_epoch": 88168,
        "meta_bstar": 0.00057236591,
        "meta_mean_motion_dot": 2.036e-05,
        "meta_mean_motion_ddot": 0,
        "tle_line1": "1 34350U 97051ES  25338.07979059  .00002036  00000+0  57237-3 0  9991",
        "tle_line2": "2 34350  86.3281   6.5649 0021933 162.4763 226.5026 14.45357099881683"
      },
      "geometry": {
        "type": "Point",
        "coordinates": [
          175.69110763262051,
          70.39499060377257
        ]
      }
    },
    {
      "type": "Feature",
      "properties": {
        "norad_id": 34366,
        "name": "IRIDIUM 33 DEB",
        "group": "iridium-33-debris",
        "lat": -23.75379964322543,
        "lon": -125.8086592405535,
        "alt_km": 706.454679236338,
        "timestamp": "2025-12-05T04:52:15.675640+00:00",
        "meta_object_name": "IRIDIUM 33 DEB",
        "meta_object_id": "1997-051FJ",
        "meta_epoch": "2025-12-04T16:58:06.750048",
        "meta_mean_motion": 14.53943221,
        "meta_eccentricity": 0.0021835,
        "meta_inclination": 86.3708,
        "meta_ra_of_asc_node": 52.8063,
        "meta_arg_of_pericenter": 165.4652,
        "meta_mean_anomaly": 323.8941,
        "meta_ephemeris_type": 0,
        "meta_classification_type": "U",
        "meta_norad_cat_id": 34366,
        "meta_element_set_no": 999,
        "meta_rev_at_epoch": 88065,
        "meta_bstar": 0.0028769,
        "meta_mean_motion_dot": 0.00012178,
        "meta_mean_motion_ddot": 0,
        "tle_line1": "1 34366U 97051FJ  25338.70702257  .00012178  00000+0  28769-2 0  9997",
        "tle_line2": "2 34366  86.3708  52.8063 0021835 165.4652 323.8941 14.53943221880659"
      },
      "geometry": {
        "type": "Point",
        "coordinates": [
          -125.8086592405535,
          -23.75379964322543
        ]
      }
    },
    {
      "type": "Feature",
      "properties": {
        "norad_id": 34375,
        "name": "IRIDIUM 33 DEB",
        "group": "iridium-33-debris",
        "lat": 13.720322386324513,
        "lon": -173.39313820956426,
        "alt_km": 886.6813794260888,
        "timestamp": "2025-12-05T04:52:15.675650+00:00",
        "meta_object_name": "IRIDIUM 33 DEB",
        "meta_object_id": "1997-051FT",
        "meta_epoch": "2025-12-04T13:42:06.507360",
        "meta_mean_motion": 14.17970346,
        "meta_eccentricity": 0.0102617,
        "meta_inclination": 86.4331,
        "meta_ra_of_asc_node": 185.989,
        "meta_arg_of_pericenter": 152.4354,
        "meta_mean_anomaly": 237.8204,
        "meta_ephemeris_type": 0,
        "meta_classification_type": "U",
        "meta_norad_cat_id": 34375,
        "meta_element_set_no": 999,
        "meta_rev_at_epoch": 86596,
        "meta_bstar": 0.0006989,
        "meta_mean_motion_dot": 1.525e-05,
        "meta_mean_motion_ddot": 0,
        "tle_line1": "1 34375U 97051FT  25338.57090865  .00001525  00000+0  69890-3 0  9992",
        "tle_line2": "2 34375  86.4331 185.9890 0102617 152.4354 237.8204 14.17970346865962"
      },
      "geometry": {
        "type": "Point",
        "coordinates": [
          -173.39313820956426,
          13.720322386324513
        ]
      }
    },
    {
      "type": "Feature",
      "properties": {
        "norad_id": 34376,
        "name": "IRIDIUM 33 DEB",
        "group": "iridium-33-debris",
        "lat": -80.83174995896107,
        "lon": -146.42847510794553,
        "alt_km": 686.2284511913458,
        "timestamp": "2025-12-05T04:52:15.675659+00:00",
        "meta_object_name": "IRIDIUM 33 DEB",
        "meta_object_id": "1997-051FU",
        "meta_epoch": "2025-12-04T06:19:49.811808",
        "meta_mean_motion": 14.62377992,
        "meta_eccentricity": 0.0026189,
        "meta_inclination": 86.2991,
        "meta_ra_of_asc_node": 10.3504,
        "meta_arg_of_pericenter": 195.5918,
        "meta_mean_anomaly": 164.449,
        "meta_ephemeris_type": 0,
        "meta_classification_type": "U",
        "meta_norad_cat_id": 34376,
        "meta_element_set_no": 999,
        "meta_rev_at_epoch": 87883,
        "meta_bstar": 0.0035031,
        "meta_mean_motion_dot": 0.00017843,
        "meta_mean_motion_ddot": 0,
        "tle_line1": "1 34376U 97051FU  25338.26377097  .00017843  00000+0  35031-2 0  9993",
        "tle_line2": "2 34376  86.2991  10.3504 0026189 195.5918 164.4490 14.62377992878839"
      },
      "geometry": {
        "type": "Point",
        "coordinates": [
          -146.42847510794553,
          -80.83174995896107
        ]
      }
    },
    {
      "type": "Feature",
      "properties": {
        "norad_id": 34486,
        "name": "IRIDIUM 33 DEB",
        "group": "iridium-33-debris",
        "lat": -57.35511283575661,
        "lon": 9.853074383170979,
        "alt_km": 597.4508574009751,
        "timestamp": "2025-12-05T04:52:15.675668+00:00",
        "meta_object_name": "IRIDIUM 33 DEB",
        "meta_object_id": "1997-051GB",
        "meta_epoch": "2025-12-04T13:38:06.925344",
        "meta_mean_motion": 14.9522889,
        "meta_eccentricity": 0.0013076,
        "meta_inclination": 86.3938,
        "meta_ra_of_asc_node": 15.7953,
        "meta_arg_of_pericenter": 139.4776,
        "meta_mean_anomaly": 348.0834,
        "meta_ephemeris_type": 0,
        "meta_classification_type": "U",
        "meta_norad_cat_id": 34486,
        "meta_element_set_no": 999,
        "meta_rev_at_epoch": 88864,
        "meta_bstar": 0.0049776,
        "meta_mean_motion_dot": 0.00055199,
        "meta_mean_motion_ddot": 0,
        "tle_line1": "1 34486U 97051GB  25338.56813571  .00055199  00000+0  49776-2 0  9997",
        "tle_line2": "2 34486  86.3938  15.7953 0013076 139.4776 348.0834 14.95228890888640"
      },
      "geometry": {
        "type": "Point",
        "coordinates": [
          9.853074383170979,
          -57.35511283575661
        ]
      }
    },
    {
      "type": "Feature",
      "properties": {
        "norad_id": 34487,
        "name": "IRIDIUM 33 DEB",
        "group": "iridium-33-debris",
        "lat": -64.12592638198838,
        "lon": 8.047818658907843,
        "alt_km": 773.5319484569827,
        "timestamp": "2025-12-05T04:52:15.675678+00:00",
        "meta_object_name": "IRIDIUM 33 DEB",
        "meta_object_id": "1997-051GC",
        "meta_epoch": "2025-12-03T10:12:00.081216",
        "meta_mean_motion": 14.43196495,
        "meta_eccentricity": 0.00319082,
        "meta_inclination": 86.3443,
        "meta_ra_of_asc_node": 16.3873,
        "meta_arg_of_pericenter": 157.9365,
        "meta_mean_anomaly": 266.0119,
        "meta_ephemeris_type": 0,
        "meta_classification_type": "U",
        "meta_norad_cat_id": 34487,
        "meta_element_set_no": 999,
        "meta_rev_at_epoch": 88114,
        "meta_bstar": 0.00029137047,
        "meta_mean_motion_dot": 1.005e-05,
        "meta_mean_motion_ddot": 0,
        "tle_line1": "1 34487U 97051GC  25337.42500094  .00001005  00000+0  29137-3 0  9992",
        "tle_line2": "2 34487  86.3443  16.3873 0031908 157.9365 266.0119 14.43196495881144"
      },
      "geometry": {
        "type": "Point",
        "coordinates": [
          8.047818658907843,
          -64.12592638198838
        ]
      }
    },
    {
      "type": "Feature",
      "properties": {
        "norad_id": 34488,
        "name": "IRIDIUM 33 DEB",
        "group": "iridium-33-debris",
        "lat": 54.95338384623777,
        "lon": 124.28257427675312,
        "alt_km": 475.60382325183673,
        "timestamp": "2025-12-05T04:52:15.675687+00:00",
        "meta_object_name": "IRIDIUM 33 DEB",
        "meta_object_id": "1997-051GD",
        "meta_epoch": "2025-12-04T04:43:46.394400",
        "meta_mean_motion": 15.26377687,
        "meta_eccentricity": 0.00155256,
        "meta_inclination": 86.3256,
        "meta_ra_of_asc_node": 310.0352,
        "meta_arg_of_pericenter": 64.3641,
        "meta_mean_anomaly": 295.9208,
        "meta_ephemeris_type": 0,
        "meta_classification_type": "U",
        "meta_norad_cat_id": 34488,
        "meta_element_set_no": 999,
        "meta_rev_at_epoch": 89109,
        "meta_bstar": 0.0085126879,
        "meta_mean_motion_dot": 0.00228455,
        "meta_mean_motion_ddot": 0,
        "tle_line1": "1 34488U 97051GD  25338.19706475  .00228455  00000+0  85127-2 0  9999",
        "tle_line2": "2 34488  86.3256 310.0352 0015525  64.3641 295.9208 15.26377687891099"
      },
      "geometry": {
        "type": "Point",
        "coordinates": [
          124.28257427675312,
          54.95338384623777
        ]
      }
    }
  ]
}